     2.100          NAVIGATION                              RINEX VERSION / TYPE
fic2rin                                 03/14/2015 00:46:12 PGM / RUN BY / DATE
                                                            END OF HEADER
24 15  3 13 21 59 44.0 -.449232757092D-04 -.682121026330D-12  .000000000000D+00
     .100000000000D+01  .710000000000D+02  .479912847439D-08 -.199485079146D+01
     .356137752533D-05  .316348474007D-02  .670552253723D-05  .515368544769D+04
     .511184000000D+06  .596046447754D-07  .256981364730D+01 -.102445483208D-06
     .954218697622D+00  .246406250000D+03  .319053291313D+00 -.833677583161D-08
     .135005623526D-09  .100000000000D+01  .183500000000D+04  .000000000000D+00
     .240000000000D+01  .000000000000D+00  .232830643654D-08  .100000000000D+01
     .504006000000D+06  .400000000000D+01
25 15  3 13 21 59 44.0 -.106873922050D-04 -.306954461848D-11  .000000000000D+00
     .600000000000D+01 -.210312500000D+02  .427482092059D-08  .230194000079D+01
    -.120885670185D-05  .434233841952D-02  .463612377644D-05  .515371233177D+04
     .511184000000D+06 -.409781932831D-07 -.265255026518D+01  .186264514923D-08
     .978118646293D+00  .299281250000D+03  .671564386609D+00 -.809390857235D-08
    -.101789954246D-09  .100000000000D+01  .183500000000D+04  .000000000000D+00
     .240000000000D+01  .000000000000D+00  .512227416039D-08  .600000000000D+01
     .504006000000D+06  .400000000000D+01
30 15  3 13 21 59 44.0 -.801389105618D-04  .250111042988D-11  .000000000000D+00
     .170000000000D+02  .685937500000D+02  .479412826611D-08 -.264766349998D+01
     .362657010555D-05  .108333630487D-02  .552088022232D-05  .515376526070D+04
     .511184000000D+06  .242143869400D-07  .265976310816D+01 -.353902578354D-07
     .956755066952D+00  .274375000000D+03  .286943351291D+01 -.830998900154D-08
     .109290266664D-09  .100000000000D+01  .183500000000D+04  .000000000000D+00
     .240000000000D+01  .000000000000D+00  .325962901115D-08  .170000000000D+02
     .504006000000D+06  .400000000000D+01
 1 15  3 13 22  0  0.0 -.799866393209D-05  .454747350886D-12  .000000000000D+00
     .720000000000D+02 -.409375000000D+01  .445411410316D-08 -.220479916966D+01
    -.186264514923D-06  .394880387466D-02  .837631523609D-05  .515366581535D+04
     .511200000000D+06 -.800937414169D-07 -.550778470546D+00  .447034835815D-07
     .962092074448D+00  .220093750000D+03  .389517199766D+00 -.792854454142D-08
     .321799118511D-09  .100000000000D+01  .183500000000D+04  .000000000000D+00
     .240000000000D+01  .000000000000D+00  .558793544769D-08  .720000000000D+02
     .504006000000D+06  .400000000000D+01
 3 15  3 13 22  0  0.0  .253586098552D-03  .172803993337D-10  .000000000000D+00
     .640000000000D+02 -.231250000000D+01  .465876548485D-08  .264899354121D-02
    -.391155481339D-07  .930002424866D-03  .751949846745D-05  .515372529221D+04
     .511200000000D+06 -.130385160446D-07  .489396265365D+00  .149011611938D-07
     .959684083494D+00  .233625000000D+03 -.288855470509D+01 -.812033824468D-08
    -.396445084958D-10  .100000000000D+01  .183500000000D+04  .000000000000D+00
     .240000000000D+01  .000000000000D+00  .139698386192D-08  .640000000000D+02
     .504006000000D+06  .400000000000D+01
 4 15  3 13 22  0  0.0 -.897981226444D-05 -.795807864051D-12  .000000000000D+00
     .101000000000D+03 -.403125000000D+01  .490770442559D-08 -.242668913017D+01
    -.201165676117D-06  .110740627861D-01  .819191336632D-05  .515371810341D+04
     .511200000000D+06  .409781932831D-07 -.571337990612D+00 -.726431608200D-07
     .939733596705D+00  .209375000000D+03  .105296727718D+01 -.804497796277D-08
     .313227332890D-09  .100000000000D+01  .183500000000D+04  .000000000000D+00
     .240000000000D+01  .000000000000D+00 -.651925802231D-08  .101000000000D+03
     .504006000000D+06  .400000000000D+01
 5 15  3 13 22  0  0.0 -.267313793302D-03  .500222085975D-11  .000000000000D+00
     .800000000000D+02 -.275000000000D+01  .497663586829D-08  .703254182411D+00
    -.763684511185D-07  .403342756908D-02  .753067433834D-05  .515378331184D+04
     .511200000000D+06 -.745058059692D-08  .483347001091D+00  .968575477600D-07
     .946944382823D+00  .226343750000D+03  .410995066657D+00 -.824784355579D-08
    -.735744932444D-10  .100000000000D+01  .183500000000D+04  .000000000000D+00
     .240000000000D+01  .000000000000D+00 -.107102096081D-07  .800000000000D+02
     .504006000000D+06  .400000000000D+01
 6 15  3 13 22  0  0.0  .107554718852D-03  .105728759081D-10  .000000000000D+00
     .860000000000D+02 -.862500000000D+01  .459197698856D-08  .408905440324D-01
    -.430271029472D-06  .280274194665D-03  .842474400997D-05  .515370819855D+04
     .511200000000D+06  .670552253723D-07 -.559300604727D+00  .316649675369D-07
     .961981136981D+00  .219093750000D+03  .291393852960D+01 -.805962142987D-08
     .279297348141D-09  .100000000000D+01  .183500000000D+04  .000000000000D+00
     .240000000000D+01  .000000000000D+00  .465661287308D-08  .860000000000D+02
     .504006000000D+06  .400000000000D+01
 7 15  3 13 22  0  0.0  .447438098490D-03  .295585778076D-11  .000000000000D+00
     .290000000000D+02  .662187500000D+02  .441732685654D-08 -.280330903787D+01
     .338070094585D-05  .806477293372D-02  .613927841187D-05  .515373185730D+04
     .511200000000D+06 -.279396772385D-07  .260939071619D+01 -.102445483208D-06
     .971016414548D+00  .269812500000D+03 -.275612745749D+01 -.800461913880D-08
     .946467995620D-10  .100000000000D+01  .183500000000D+04  .000000000000D+00
     .240000000000D+01  .000000000000D+00 -.111758708954D-07  .290000000000D+02
     .504006000000D+06  .400000000000D+01
 8 15  3 13 22  0  0.0  .184569507837D-04  .341060513165D-12  .000000000000D+00
     .770000000000D+02  .489687500000D+02  .391266297812D-08 -.124853321328D+01
     .266917049885D-05  .144498337759D-01  .601634383202D-05  .515357811165D+04
     .511200000000D+06  .221654772758D-06  .271518164733D+01 -.968575477600D-07
     .994669539682D+00  .280218750000D+03 -.268568214711D+01 -.781353975101D-08
     .162506769059D-09  .100000000000D+01  .183500000000D+04  .000000000000D+00
     .340000000000D+01  .630000000000D+02 -.512227416039D-08  .770000000000D+02
     .504006000000D+06  .400000000000D+01
 9 15  3 13 22  0  0.0 -.111975707114D-03 -.100044417195D-10  .000000000000D+00
     .520000000000D+02  .450312500000D+02  .461126350621D-08 -.447233636528D+00
     .208802521229D-05  .396624323912D-03  .890903174877D-05  .515363641548D+04
     .511200000000D+06  .502914190292D-07  .153331141070D+01  .186264514923D-07
     .957757584231D+00  .205125000000D+03  .226765658728D+01 -.804354933183D-08
    -.120719314158D-09  .100000000000D+01  .183500000000D+04  .000000000000D+00
     .240000000000D+01  .000000000000D+00  .465661287308D-09  .520000000000D+02
     .504006000000D+06  .400000000000D+01
10 15  3 13 22  0  0.0 -.167028512806D-03 -.147792889038D-11  .000000000000D+00
     .600000000000D+02 -.203125000000D+01  .520521681817D-08  .107113985330D+01
    -.108033418655D-06  .145914378809D-01  .773370265961D-05  .515366576385D+04
     .511200000000D+06 -.165775418282D-06  .498869723469D+00  .875443220139D-07
     .941726847457D+00  .222468750000D+03  .924343620976D+00 -.853392690088D-08
    -.219652006531D-09  .100000000000D+01  .183500000000D+04  .000000000000D+00
     .240000000000D+01  .000000000000D+00 -.325962901115D-08  .600000000000D+02
     .504006000000D+06  .400000000000D+01
11 15  3 13 22  0  0.0 -.564068555832D-03 -.272848410532D-11  .000000000000D+00
     .700000000000D+02 -.145312500000D+02  .585452957894D-08 -.273737241907D+01
    -.746920704842D-06  .156171548879D-01  .824220478535D-05  .515372888374D+04
     .511200000000D+06  .113621354103D-06 -.896058430533D+00 -.260770320892D-07
     .892528197085D+00  .181156250000D+03  .138779980771D+01 -.840213569696D-08
     .280011663610D-09  .100000000000D+01  .183500000000D+04  .000000000000D+00
     .240000000000D+01  .000000000000D+00 -.121071934700D-07  .700000000000D+02
     .504006000000D+06  .400000000000D+01
12 15  3 13 22  0  0.0  .276377424598D-03  .306954461848D-11  .000000000000D+00
     .750000000000D+02 -.295000000000D+02  .398873757550D-08  .299501373336D+01
    -.169314444065D-05  .540061586071D-02  .476278364658D-05  .515372388649D+04
     .511200000000D+06 -.931322574615D-07 -.260681073288D+01 -.223517417908D-07
     .989553056845D+00  .300343750000D+03  .530871947370D+00 -.795425989828D-08
    -.152506352502D-09  .100000000000D+01  .183500000000D+04  .000000000000D+00
     .240000000000D+01  .000000000000D+00 -.125728547573D-07  .750000000000D+02
     .504006000000D+06  .400000000000D+01
13 15  3 13 22  0  0.0 -.963364727795D-04 -.341060513165D-11  .000000000000D+00
     .500000000000D+01  .535937500000D+02  .418160275197D-08 -.204607805132D+01
     .286661088467D-05  .532153074164D-02  .100415199995D-04  .515368845558D+04
     .511200000000D+06 -.428408384323D-07  .164732538974D+01  .689178705215D-07
     .974497246716D+00  .193500000000D+03  .206211062405D+01 -.780461080765D-08
    -.143220251413D-09  .100000000000D+01  .183500000000D+04  .000000000000D+00
     .240000000000D+01  .000000000000D+00 -.116415321827D-07  .500000000000D+01
     .504006000000D+06  .400000000000D+01
14 15  3 13 22  0  0.0  .792192295194D-04 -.352429196937D-11  .000000000000D+00
     .820000000000D+02  .334375000000D+02  .449590155806D-08 -.222243656060D+00
     .174529850483D-05  .786751788110D-02  .934116542339D-05  .515356876373D+04
     .511200000000D+06 -.800937414169D-07  .161321317130D+01  .109896063805D-06
     .967001333476D+00  .206812500000D+03 -.197050889670D+01 -.810676625078D-08
    -.111790370803D-09  .100000000000D+01  .183500000000D+04  .000000000000D+00
     .240000000000D+01  .000000000000D+00 -.931322574615D-08  .820000000000D+02
     .504006000000D+06  .400000000000D+01
